{
"type": "FeatureCollection",
"name": "pagsanjan_boundary",
"crs": { "type": "name", "properties": { "name": "urn:ogc:def:crs:OGC:1.3:CRS84" } },
"features": [
{ "type": "Feature", "properties": { "municipality": "Pagsanjan", "province": "Laguna" }, "geometry": { "type": "Polygon", "coordinates": [ [ [ 121.474058398000011, 14.265717572000028 ], [ 121.47270612300008, 14.264525545000026 ], [ 121.471405190000041, 14.26354191300004 ], [ 121.47131, 14.261987139000041 ], [ 121.471151350000014, 14.261130427000069 ], [ 121.471500380000066, 14.25982949400003 ], [ 121.472230172000081, 14.259956415000033 ], [ 121.472864774000072, 14.259480464000035 ], [ 121.473023424000075, 14.258433371000024 ], [ 121.473055154, 14.25735454900007 ], [ 121.473500125000101, 14.251654968000025 ], [ 121.474002619000089, 14.246047022000027 ], [ 121.474320959000011, 14.239122144000078 ], [ 121.474458558000038, 14.236347643000045 ], [ 121.475193535000017, 14.232773869000027 ], [ 121.476474512000095, 14.22917009300005 ], [ 121.478160788000082, 14.221267222000051 ], [ 121.470916609000028, 14.222035039000048 ], [ 121.468480186000079, 14.22264589200006 ], [ 121.462713323000116, 14.222578535000025 ], [ 121.462201057000016, 14.222852538000041 ], [ 121.461831750000101, 14.223055061000025 ], [ 121.461617313000033, 14.22331715100006 ], [ 121.461219376000031, 14.223621360000038 ], [ 121.461125440000046, 14.224623345000055 ], [ 121.459995608000099, 14.22570857900007 ], [ 121.459810335000043, 14.227096995000068 ], [ 121.459559838000018, 14.228224227000055 ], [ 121.459998207000012, 14.229414084000041 ], [ 121.460248703000047, 14.230416069000057 ], [ 121.460248703000047, 14.231386742000041 ], [ 121.46028001500008, 14.232420038000043 ], [ 121.460781007000037, 14.233108903000073 ], [ 121.461532496000018, 14.234330072000034 ], [ 121.461657744000036, 14.235394681000059 ], [ 121.461038299000052, 14.236392890000047 ], [ 121.459907601000054, 14.237108999000043 ], [ 121.459116112000061, 14.237862798000037 ], [ 121.458927662000065, 14.240124194000032 ], [ 121.455359790000102, 14.239722270000073 ], [ 121.446053357000096, 14.236072249000074 ], [ 121.442108605000044, 14.234601443000031 ], [ 121.435073837000118, 14.230854437000062 ], [ 121.431723250000118, 14.230867290000049 ], [ 121.429304560000105, 14.230416930000047 ], [ 121.421481886000038, 14.229454012000076 ], [ 121.421199649000073, 14.229301418000034 ], [ 121.420906370000012, 14.22918928100006 ], [ 121.420630343000084, 14.229059894000045 ], [ 121.411024537000117, 14.226951626000073 ], [ 121.412418551000087, 14.229267468000046 ], [ 121.414437558000031, 14.230585372000064 ], [ 121.414907566000011, 14.231854287000033 ], [ 121.414814574000047, 14.233136205000051 ], [ 121.415002584000035, 14.234726102000025 ], [ 121.415566590000026, 14.235839027000054 ], [ 121.415974815000027, 14.237322907000078 ], [ 121.416386128000113, 14.237569816000075 ], [ 121.41662859500002, 14.237993433000042 ], [ 121.417362456000092, 14.239009896000027 ], [ 121.418572544000085, 14.240003254000044 ], [ 121.419240093000099, 14.240634993000072 ], [ 121.419259465000096, 14.240653325000039 ], [ 121.419328742000062, 14.241092257000048 ], [ 121.419206952000081, 14.241563466000059 ], [ 121.419066336000014, 14.241939187000071 ], [ 121.420248746000084, 14.244844323000052 ], [ 121.420766235000087, 14.246637708000037 ], [ 121.421705594000059, 14.247868223000069 ], [ 121.422207910000111, 14.248338100000069 ], [ 121.422973098000057, 14.248861588000068 ], [ 121.423802376000026, 14.249050044000057 ], [ 121.424386163, 14.248923981000075 ], [ 121.425016520000099, 14.249376435000045 ], [ 121.425395154000057, 14.249791290000076 ], [ 121.425535582000066, 14.25049681400003 ], [ 121.42539702900001, 14.251145119000057 ], [ 121.425264688000084, 14.251446144000056 ], [ 121.425071456000069, 14.251632581000024 ], [ 121.424881695000067, 14.252408393000053 ], [ 121.424644087000047, 14.254907953000043 ], [ 121.424562300000048, 14.256172430000049 ], [ 121.424604755000018, 14.257780789000037 ], [ 121.424658514000043, 14.258106772000076 ], [ 121.425378017000071, 14.258846259000052 ], [ 121.425586435000014, 14.259439239000073 ], [ 121.426147202000038, 14.261350167000046 ], [ 121.426188613000022, 14.262114093000037 ], [ 121.425865808000026, 14.26243769000007 ], [ 121.425443335000068, 14.262558760000047 ], [ 121.424862645000076, 14.26263476500003 ], [ 121.425018754, 14.262850234000041 ], [ 121.42563012200003, 14.262998724000056 ], [ 121.426107012000102, 14.263132253000038 ], [ 121.426361353000061, 14.263437463000059 ], [ 121.426552109000113, 14.263621860000057 ], [ 121.42676194, 14.263647294000066 ], [ 121.427283339000041, 14.263844408000068 ], [ 121.427931909000108, 14.264651941000068 ], [ 121.428090872000098, 14.265268718000073 ], [ 121.428179891000013, 14.265586644000052 ], [ 121.428338855000106, 14.265688381000075 ], [ 121.428750275000084, 14.266004188000068 ], [ 121.428832936000049, 14.266398416000072 ], [ 121.428775984000026, 14.266633682000077 ], [ 121.428997208000055, 14.266727076000052 ], [ 121.429094872000064, 14.267013558000031 ], [ 121.429159982000101, 14.267306551000047 ], [ 121.429133938000064, 14.267729763000034 ], [ 121.427232177000064, 14.269167554000035 ], [ 121.426691872000106, 14.269626811000023 ], [ 121.426978478000024, 14.271176620000062 ], [ 121.427319085000022, 14.273016725000048 ], [ 121.426644809000095, 14.276156324000056 ], [ 121.428930608000087, 14.276652343000023 ], [ 121.429020225000045, 14.271394775000033 ], [ 121.431230794000044, 14.270916815000078 ], [ 121.436548107000021, 14.275098971000034 ], [ 121.43672734200004, 14.276264 ], [ 121.444393852000076, 14.280249001000072 ], [ 121.447094412000069, 14.280507531000069 ], [ 121.447581243000059, 14.280577747000052 ], [ 121.447913598000014, 14.28061987600006 ], [ 121.44931791700003, 14.280952232000061 ], [ 121.454280857000072, 14.28204082600007 ], [ 121.457627974000047, 14.282981856000049 ], [ 121.457952472000102, 14.283077166000055 ], [ 121.458400862000076, 14.283203727000057 ], [ 121.461914155000045, 14.283264534000068 ], [ 121.460590528000012, 14.277147730000024 ], [ 121.46055069800002, 14.276171893000026 ], [ 121.461745599000096, 14.27402107000006 ], [ 121.462475319000077, 14.273720597000022 ], [ 121.463099821000014, 14.273463449000076 ], [ 121.463439210000047, 14.273396684000033 ], [ 121.464314638000019, 14.27322446900007 ], [ 121.468769636000047, 14.274278167000034 ], [ 121.47045132900007, 14.270407099000067 ], [ 121.471783992000042, 14.269233086000042 ], [ 121.472858343000098, 14.26693657800007 ], [ 121.473543204000066, 14.266398473000038 ], [ 121.474058398000011, 14.265717572000028 ] ] ] } }
]
}
