{
"type": "FeatureCollection",
"name": "pagsanjan_barangays",
"crs": { "type": "name", "properties": { "name": "urn:ogc:def:crs:OGC:1.3:CRS84" } },
"features": [
{ "type": "Feature", "properties": { "ADM1_EN": "Region IV-A (Calabarzon)", "ADM1_PCODE": "PH04", "ADM2_EN": "Laguna", "ADM2_PCODE": "PH04034", "ADM3_EN": "Pagsanjan", "ADM3_PCODE": "PH0403419", "ADM4_EN": "Anibong", "ADM4_PCODE": "PH0403419001" }, "geometry": { "type": "Polygon", "coordinates": [ [ [ 121.459656942000038, 14.241105515000072 ], [ 121.459979608000026, 14.241095272000052 ], [ 121.460517385000117, 14.241120881000029 ], [ 121.460824686000024, 14.241166976000045 ], [ 121.461096135000048, 14.241213071000061 ], [ 121.461193447000028, 14.241197706000037 ], [ 121.46128563700006, 14.240941622000037 ], [ 121.461301002000027, 14.240690659000052 ], [ 121.461336854000024, 14.240321898000047 ], [ 121.461418801000036, 14.239768756000046 ], [ 121.461444409000023, 14.239522916000055 ], [ 121.461495626000101, 14.239394874000027 ], [ 121.461587319000046, 14.239347285000065 ], [ 121.462876987000072, 14.238873742000067 ], [ 121.463072891000024, 14.238977457000033 ], [ 121.463291843000093, 14.239046599000062 ], [ 121.463630514000101, 14.239071781000064 ], [ 121.463831967000033, 14.239140070000076 ], [ 121.464016347000097, 14.239310793000072 ], [ 121.464132439000082, 14.239416641000048 ], [ 121.464525741000102, 14.239467858000069 ], [ 121.464894503000096, 14.239525477000029 ], [ 121.465113454000061, 14.239721381000038 ], [ 121.465378502000021, 14.240124713000057 ], [ 121.465689644, 14.240574141000025 ], [ 121.466208214000062, 14.24089680700007 ], [ 121.467210783000041, 14.240504998000063 ], [ 121.46810963900009, 14.240309094000054 ], [ 121.468754970000077, 14.240170808000073 ], [ 121.469077636000065, 14.240216904000022 ], [ 121.46929658800002, 14.241058140000064 ], [ 121.46960773100011, 14.241230997000059 ], [ 121.469792111000061, 14.241150330000039 ], [ 121.470414395000034, 14.240885283000068 ], [ 121.471451536000018, 14.240551093000022 ], [ 121.47229277200006, 14.240262999000038 ], [ 121.472938104000036, 14.239364144000035 ], [ 121.474320959000011, 14.239122144000078 ], [ 121.474458558000038, 14.236347643000045 ], [ 121.475193535000017, 14.232773869000027 ], [ 121.476474512000095, 14.22917009300005 ], [ 121.478160788000082, 14.221267222000051 ], [ 121.470916609000028, 14.222035039000048 ], [ 121.468480186000079, 14.22264589200006 ], [ 121.462713323000116, 14.222578535000025 ], [ 121.462201057000016, 14.222852538000041 ], [ 121.461831750000101, 14.223055061000025 ], [ 121.461617313000033, 14.22331715100006 ], [ 121.461219376000031, 14.223621360000038 ], [ 121.461125440000046, 14.224623345000055 ], [ 121.459995608000099, 14.22570857900007 ], [ 121.459810335000043, 14.227096995000068 ], [ 121.459559838000018, 14.228224227000055 ], [ 121.459998207000012, 14.229414084000041 ], [ 121.460248703000047, 14.230416069000057 ], [ 121.460248703000047, 14.231386742000041 ], [ 121.46028001500008, 14.232420038000043 ], [ 121.460781007000037, 14.233108903000073 ], [ 121.461532496000018, 14.234330072000034 ], [ 121.461657744000036, 14.235394681000059 ], [ 121.461038299000052, 14.236392890000047 ], [ 121.459907601000054, 14.237108999000043 ], [ 121.459116112000061, 14.237862798000037 ], [ 121.458927662000065, 14.240124194000032 ], [ 121.459147685000062, 14.241003808000073 ], [ 121.459191168000075, 14.241492995000044 ], [ 121.459656942000038, 14.241105515000072 ] ] ] } },
{ "type": "Feature", "properties": { "ADM1_EN": "Region IV-A (Calabarzon)", "ADM1_PCODE": "PH04", "ADM2_EN": "Laguna", "ADM2_PCODE": "PH04034", "ADM3_EN": "Pagsanjan", "ADM3_PCODE": "PH0403419", "ADM4_EN": "Biñan", "ADM4_PCODE": "PH0403419002" }, "geometry": { "type": "Polygon", "coordinates": [ [ [ 121.442340823000109, 14.275407324000071 ], [ 121.439861816000075, 14.274130421000052 ], [ 121.439060799000117, 14.27128060900003 ], [ 121.439930778000075, 14.268110807000028 ], [ 121.440405379000026, 14.267191705000073 ], [ 121.440734504000034, 14.266554325000072 ], [ 121.440850842000032, 14.266342588000043 ], [ 121.440913479000073, 14.266009077000035 ], [ 121.440846884000052, 14.265630317000046 ], [ 121.44077612600006, 14.265397234000034 ], [ 121.440780289000031, 14.265193286000056 ], [ 121.440917771000045, 14.264311505000023 ], [ 121.441021696, 14.263644948000035 ], [ 121.441233968, 14.263028942000062 ], [ 121.441341925000074, 14.262421261000043 ], [ 121.441145261000088, 14.262140313000032 ], [ 121.440892408000082, 14.261929601000077 ], [ 121.440765981000027, 14.261803175000068 ], [ 121.440723839000043, 14.261550321000072 ], [ 121.440878360000056, 14.261185088000047 ], [ 121.440729302000022, 14.261050857000043 ], [ 121.440816708000057, 14.26075742200004 ], [ 121.440929087000086, 14.260314148000077 ], [ 121.440916601000026, 14.260133092000046 ], [ 121.436883539000064, 14.259024716000056 ], [ 121.434944202000111, 14.259583877000068 ], [ 121.432685074, 14.258423224000069 ], [ 121.431490259000043, 14.257809374000033 ], [ 121.42978361400003, 14.256932565000056 ], [ 121.427081378000025, 14.258610555000075 ], [ 121.425531428000113, 14.258372397000073 ], [ 121.424658514000043, 14.258106772000076 ], [ 121.425378017000071, 14.258846259000052 ], [ 121.425586435000014, 14.259439239000073 ], [ 121.426147202000038, 14.261350167000046 ], [ 121.426188613000022, 14.262114093000037 ], [ 121.425865808000026, 14.26243769000007 ], [ 121.425443335000068, 14.262558760000047 ], [ 121.424862645000076, 14.26263476500003 ], [ 121.425018754, 14.262850234000041 ], [ 121.42563012200003, 14.262998724000056 ], [ 121.426107012000102, 14.263132253000038 ], [ 121.426361353000061, 14.263437463000059 ], [ 121.426552109000113, 14.263621860000057 ], [ 121.42676194, 14.263647294000066 ], [ 121.427283339000041, 14.263844408000068 ], [ 121.427931909000108, 14.264651941000068 ], [ 121.428090872000098, 14.265268718000073 ], [ 121.428179891000013, 14.265586644000052 ], [ 121.428338855000106, 14.265688381000075 ], [ 121.428750275000084, 14.266004188000068 ], [ 121.428832936000049, 14.266398416000072 ], [ 121.428775984000026, 14.266633682000077 ], [ 121.428997208000055, 14.266727076000052 ], [ 121.429094872000064, 14.267013558000031 ], [ 121.429159982000101, 14.267306551000047 ], [ 121.429133938000064, 14.267729763000034 ], [ 121.427232177000064, 14.269167554000035 ], [ 121.426691872000106, 14.269626811000023 ], [ 121.426978478000024, 14.271176620000062 ], [ 121.427319085000022, 14.273016725000048 ], [ 121.426644809000095, 14.276156324000056 ], [ 121.428930608000087, 14.276652343000023 ], [ 121.429020225000045, 14.271394775000033 ], [ 121.431230794000044, 14.270916815000078 ], [ 121.436548107000021, 14.275098971000034 ], [ 121.43672734200004, 14.276264 ], [ 121.444393852000076, 14.280249001000072 ], [ 121.442340823000109, 14.275407324000071 ] ] ] } },
{ "type": "Feature", "properties": { "ADM1_EN": "Region IV-A (Calabarzon)", "ADM1_PCODE": "PH04", "ADM2_EN": "Laguna", "ADM2_PCODE": "PH04034", "ADM3_EN": "Pagsanjan", "ADM3_PCODE": "PH0403419", "ADM4_EN": "Buboy", "ADM4_PCODE": "PH0403419003" }, "geometry": { "type": "Polygon", "coordinates": [ [ [ 121.428700298000081, 14.237711579000063 ], [ 121.433408448000023, 14.237397143000067 ], [ 121.434312627000054, 14.23763897300006 ], [ 121.434386285000073, 14.237658673000055 ], [ 121.436771587000067, 14.237334804000056 ], [ 121.436321576000068, 14.235580920000075 ], [ 121.435627561000047, 14.233100084000057 ], [ 121.435073837000118, 14.230854437000062 ], [ 121.431723250000118, 14.230867290000049 ], [ 121.429304560000105, 14.230416930000047 ], [ 121.421481886000038, 14.229454012000076 ], [ 121.421199649000073, 14.229301418000034 ], [ 121.420906370000012, 14.22918928100006 ], [ 121.420630343000084, 14.229059894000045 ], [ 121.411024537000117, 14.226951626000073 ], [ 121.412418551000087, 14.229267468000046 ], [ 121.414437558000031, 14.230585372000064 ], [ 121.414907566000011, 14.231854287000033 ], [ 121.414814574000047, 14.233136205000051 ], [ 121.415002584000035, 14.234726102000025 ], [ 121.415566590000026, 14.235839027000054 ], [ 121.415974815000027, 14.237322907000078 ], [ 121.416386128000113, 14.237569816000075 ], [ 121.41662859500002, 14.237993433000042 ], [ 121.417362456000092, 14.239009896000027 ], [ 121.428700298000081, 14.237711579000063 ] ] ] } },
{ "type": "Feature", "properties": { "ADM1_EN": "Region IV-A (Calabarzon)", "ADM1_PCODE": "PH04", "ADM2_EN": "Laguna", "ADM2_PCODE": "PH04034", "ADM3_EN": "Pagsanjan", "ADM3_PCODE": "PH0403419", "ADM4_EN": "Cabanbanan", "ADM4_PCODE": "PH0403419004" }, "geometry": { "type": "Polygon", "coordinates": [ [ [ 121.435930928000062, 14.250196990000063 ], [ 121.437236662000032, 14.249277034000045 ], [ 121.437038660000098, 14.249034051000024 ], [ 121.437290653000105, 14.247907122000072 ], [ 121.439220642, 14.246359210000037 ], [ 121.43780163200006, 14.244631329000072 ], [ 121.437282622000112, 14.242968439000038 ], [ 121.436916607000057, 14.240490601000033 ], [ 121.436550604000104, 14.240061630000071 ], [ 121.436749600000098, 14.23893793700006 ], [ 121.436771587000067, 14.237334804000056 ], [ 121.434386285000073, 14.237658673000055 ], [ 121.434312627000054, 14.23763897300006 ], [ 121.433408448000023, 14.237397143000067 ], [ 121.428700298000081, 14.237711579000063 ], [ 121.417362456000092, 14.239009896000027 ], [ 121.418572544000085, 14.240003254000044 ], [ 121.419240093000099, 14.240634993000072 ], [ 121.419259465000096, 14.240653325000039 ], [ 121.419328742000062, 14.241092257000048 ], [ 121.419206952000081, 14.241563466000059 ], [ 121.419066336000014, 14.241939187000071 ], [ 121.420248746000084, 14.244844323000052 ], [ 121.420766235000087, 14.246637708000037 ], [ 121.421705594000059, 14.247868223000069 ], [ 121.422207910000111, 14.248338100000069 ], [ 121.422973098000057, 14.248861588000068 ], [ 121.423802376000026, 14.249050044000057 ], [ 121.424386163, 14.248923981000075 ], [ 121.425016520000099, 14.249376435000045 ], [ 121.426565685000014, 14.249099976000025 ], [ 121.427866342000016, 14.248521409000034 ], [ 121.431364005000091, 14.249792226000068 ], [ 121.433920894000039, 14.250721229000021 ], [ 121.434947985, 14.250889524000058 ], [ 121.435930928000062, 14.250196990000063 ] ] ] } },
{ "type": "Feature", "properties": { "ADM1_EN": "Region IV-A (Calabarzon)", "ADM1_PCODE": "PH04", "ADM2_EN": "Laguna", "ADM2_PCODE": "PH04034", "ADM3_EN": "Pagsanjan", "ADM3_PCODE": "PH0403419", "ADM4_EN": "Calusiche", "ADM4_PCODE": "PH0403419005" }, "geometry": { "type": "Polygon", "coordinates": [ [ [ 121.448624741000117, 14.261658347000036 ], [ 121.448766062000118, 14.261266998000053 ], [ 121.448950865000029, 14.260853907000069 ], [ 121.448983478000059, 14.260451687000057 ], [ 121.449026961000072, 14.259853792000058 ], [ 121.449048703000017, 14.259429831000034 ], [ 121.449070444000085, 14.259071094000035 ], [ 121.449157411000101, 14.258647132000021 ], [ 121.449298731000113, 14.258244912000066 ], [ 121.449472664000041, 14.257853563000026 ], [ 121.44971182200004, 14.257223056000043 ], [ 121.449972721000108, 14.256657774000075 ], [ 121.45025536300011, 14.255907688000036 ], [ 121.450353200000109, 14.255331535000039 ], [ 121.450548874000106, 14.254940186000056 ], [ 121.45091848200002, 14.254277067000032 ], [ 121.451114157, 14.253874847000077 ], [ 121.451418539000088, 14.253309565000052 ], [ 121.451809888000071, 14.252874732000066 ], [ 121.452266462000011, 14.252570350000042 ], [ 121.452570845000082, 14.252287709000029 ], [ 121.452799132000109, 14.251994197000045 ], [ 121.452951323000093, 14.251570235000031 ], [ 121.453103515000066, 14.251331077000032 ], [ 121.453429639000092, 14.251200628000049 ], [ 121.453788376000034, 14.251004953000063 ], [ 121.450908846000061, 14.250444163000054 ], [ 121.447745495000049, 14.248922911000022 ], [ 121.446750283000029, 14.248837607000041 ], [ 121.446520436000014, 14.250624249000055 ], [ 121.446169743000041, 14.250624249000055 ], [ 121.446058637000078, 14.250979155000039 ], [ 121.446096550000107, 14.251067618000036 ], [ 121.446163951000017, 14.251118169000051 ], [ 121.445890838000082, 14.251657374000047 ], [ 121.445836426000028, 14.251922763000039 ], [ 121.44504341600009, 14.251657374000047 ], [ 121.445014981000099, 14.25156891000006 ], [ 121.44416194300004, 14.251366709000024 ], [ 121.443466707000084, 14.251146333000065 ], [ 121.443063171000063, 14.251268280000033 ], [ 121.442686241000047, 14.251303756000027 ], [ 121.442677373000038, 14.251516610000067 ], [ 121.442513298000108, 14.251640775000055 ], [ 121.441661881000073, 14.251578693000056 ], [ 121.441214, 14.25149887200007 ], [ 121.441147484000112, 14.25214186900007 ], [ 121.441027753000071, 14.252164042000061 ], [ 121.440992277000078, 14.252594184000031 ], [ 121.440899154000022, 14.252585315000033 ], [ 121.44085924400008, 14.252682873000026 ], [ 121.440779423000095, 14.252687308000077 ], [ 121.440752816000099, 14.252802604000067 ], [ 121.440593176000107, 14.252807038000071 ], [ 121.440531093000118, 14.252846949000059 ], [ 121.440131992000033, 14.25278486600007 ], [ 121.440078778000043, 14.252855817000068 ], [ 121.440074344000095, 14.253037630000051 ], [ 121.439948889000107, 14.253140597000026 ], [ 121.439986349000037, 14.253446519000022 ], [ 121.439880213000038, 14.253602601000068 ], [ 121.439811537000082, 14.253827360000059 ], [ 121.439767834, 14.254220688000032 ], [ 121.439986349000037, 14.254532853000057 ], [ 121.440204865000055, 14.255019830000037 ], [ 121.439792807000117, 14.256499492000046 ], [ 121.440754275000018, 14.256730494000067 ], [ 121.440654382000048, 14.257167525000057 ], [ 121.440897871000061, 14.257223715000066 ], [ 121.441185062000045, 14.257423500000073 ], [ 121.441759446000106, 14.257592069000054 ], [ 121.441409821000093, 14.258534808000036 ], [ 121.441241252000054, 14.259046758000068 ], [ 121.440916601000026, 14.260133092000046 ], [ 121.440929087000086, 14.260314148000077 ], [ 121.440816708000057, 14.26075742200004 ], [ 121.440729302000022, 14.261050857000043 ], [ 121.440878360000056, 14.261185088000047 ], [ 121.441809768000098, 14.261473548000026 ], [ 121.442520634000061, 14.261729459000037 ], [ 121.443046674000016, 14.261530417000074 ], [ 121.443245716000092, 14.261331374000065 ], [ 121.443345238, 14.261061246000054 ], [ 121.445032153000056, 14.261545687000023 ], [ 121.445428132000075, 14.261610279000024 ], [ 121.445632977000059, 14.261662604000037 ], [ 121.445944869000073, 14.261742272000049 ], [ 121.446447565000085, 14.261941666000041 ], [ 121.448407325000062, 14.262245370000073 ], [ 121.448624741000117, 14.261658347000036 ] ] ] } },
{ "type": "Feature", "properties": { "ADM1_EN": "Region IV-A (Calabarzon)", "ADM1_PCODE": "PH04", "ADM2_EN": "Laguna", "ADM2_PCODE": "PH04034", "ADM3_EN": "Pagsanjan", "ADM3_PCODE": "PH0403419", "ADM4_EN": "Dingin", "ADM4_PCODE": "PH0403419006" }, "geometry": { "type": "Polygon", "coordinates": [ [ [ 121.445890838000082, 14.251657374000047 ], [ 121.446163951000017, 14.251118169000051 ], [ 121.446096550000107, 14.251067618000036 ], [ 121.446058637000078, 14.250979155000039 ], [ 121.446169743000041, 14.250624249000055 ], [ 121.446520436000014, 14.250624249000055 ], [ 121.446750283000029, 14.248837607000041 ], [ 121.447745495000049, 14.248922911000022 ], [ 121.450908846000061, 14.250444163000054 ], [ 121.453788376000034, 14.251004953000063 ], [ 121.453973179000059, 14.250635346000024 ], [ 121.454353658000059, 14.250178772000027 ], [ 121.455016777000083, 14.249406944000043 ], [ 121.45562554300011, 14.248754695000059 ], [ 121.4558647, 14.248472054000047 ], [ 121.456256050000093, 14.24827638000005 ], [ 121.456723494000016, 14.248069834000034 ], [ 121.457038748000059, 14.247830677000024 ], [ 121.457517063000068, 14.247308878000069 ], [ 121.457810575000053, 14.246765337000056 ], [ 121.457919283000024, 14.246417471000029 ], [ 121.458104087000038, 14.246026122000046 ], [ 121.458375857000078, 14.245189070000038 ], [ 121.458506307000107, 14.244275922000043 ], [ 121.458723723000048, 14.243569319000073 ], [ 121.458875915000021, 14.243112745000076 ], [ 121.458962881000048, 14.242710525000064 ], [ 121.459006364000061, 14.242330047000053 ], [ 121.459191168000075, 14.241492995000044 ], [ 121.459147685000062, 14.241003808000073 ], [ 121.458927662000065, 14.240124194000032 ], [ 121.455359790000102, 14.239722270000073 ], [ 121.446053357000096, 14.236072249000074 ], [ 121.442126945000041, 14.24152798700004 ], [ 121.442436249000025, 14.242725291000056 ], [ 121.442705642000078, 14.243653202000075 ], [ 121.44286528300006, 14.244371585000067 ], [ 121.44286528300006, 14.244940305000057 ], [ 121.442725597000049, 14.245818328000041 ], [ 121.442346451000049, 14.24750453200005 ], [ 121.442814841000086, 14.248716248000051 ], [ 121.442850317000079, 14.248973447000026 ], [ 121.442916833000027, 14.249541058000034 ], [ 121.442992219000075, 14.250090931000045 ], [ 121.443005523000011, 14.250255006000032 ], [ 121.443085343, 14.250427950000073 ], [ 121.443466707000084, 14.251146333000065 ], [ 121.44416194300004, 14.251366709000024 ], [ 121.445014981000099, 14.25156891000006 ], [ 121.44504341600009, 14.251657374000047 ], [ 121.445836426000028, 14.251922763000039 ], [ 121.445890838000082, 14.251657374000047 ] ] ] } },
{ "type": "Feature", "properties": { "ADM1_EN": "Region IV-A (Calabarzon)", "ADM1_PCODE": "PH04", "ADM2_EN": "Laguna", "ADM2_PCODE": "PH04034", "ADM3_EN": "Pagsanjan", "ADM3_PCODE": "PH0403419", "ADM4_EN": "Lambac", "ADM4_PCODE": "PH0403419007" }, "geometry": { "type": "Polygon", "coordinates": [ [ [ 121.456886332000067, 14.260904922000066 ], [ 121.457165244000066, 14.259576568000057 ], [ 121.456713971000113, 14.25932272700004 ], [ 121.457080630000064, 14.258124036000027 ], [ 121.457630618000053, 14.258166342000038 ], [ 121.457517800000119, 14.258857353000053 ], [ 121.458237015, 14.258970171000044 ], [ 121.458716491000018, 14.259026580000068 ], [ 121.459027391000063, 14.258979269000065 ], [ 121.459284383000067, 14.258940162000044 ], [ 121.459365195000032, 14.258927864000043 ], [ 121.459774160000052, 14.259139398000059 ], [ 121.460521580000091, 14.258913762000077 ], [ 121.460902341000065, 14.259012478000045 ], [ 121.461043363000044, 14.259548363000022 ], [ 121.461635658000091, 14.259647079000047 ], [ 121.462129237000113, 14.259943226000075 ], [ 121.462354873000095, 14.260535521000065 ], [ 121.462557855000114, 14.260682118000034 ], [ 121.462608714000112, 14.260718850000046 ], [ 121.462681657000076, 14.260687782000048 ], [ 121.46337023500007, 14.260394499000029 ], [ 121.464159961000064, 14.259717590000037 ], [ 121.464808665000078, 14.259590670000023 ], [ 121.465541982000104, 14.259153500000025 ], [ 121.466091970000093, 14.25925221600005 ], [ 121.467149639000013, 14.259012478000045 ], [ 121.46772450200001, 14.259194893000029 ], [ 121.468422564000093, 14.258909322000022 ], [ 121.46883505400001, 14.258147801000064 ], [ 121.469311006000112, 14.257767040000033 ], [ 121.470199448000017, 14.257576659000051 ], [ 121.470802319000086, 14.25760838900004 ], [ 121.471563841000034, 14.257925690000036 ], [ 121.473055154, 14.25735454900007 ], [ 121.473500125000101, 14.251654968000025 ], [ 121.474002619000089, 14.246047022000027 ], [ 121.474320959000011, 14.239122144000078 ], [ 121.472938104000036, 14.239364144000035 ], [ 121.47229277200006, 14.240262999000038 ], [ 121.471451536000018, 14.240551093000022 ], [ 121.470414395000034, 14.240885283000068 ], [ 121.469792111000061, 14.241150330000039 ], [ 121.46960773100011, 14.241230997000059 ], [ 121.46929658800002, 14.241058140000064 ], [ 121.469077636000065, 14.240216904000022 ], [ 121.468754970000077, 14.240170808000073 ], [ 121.46810963900009, 14.240309094000054 ], [ 121.467210783000041, 14.240504998000063 ], [ 121.466208214000062, 14.24089680700007 ], [ 121.465689644, 14.240574141000025 ], [ 121.465378502000021, 14.240124713000057 ], [ 121.465113454000061, 14.239721381000038 ], [ 121.464894503000096, 14.239525477000029 ], [ 121.464525741000102, 14.239467858000069 ], [ 121.464132439000082, 14.239416641000048 ], [ 121.464016347000097, 14.239310793000072 ], [ 121.463831967000033, 14.239140070000076 ], [ 121.463630514000101, 14.239071781000064 ], [ 121.463291843000093, 14.239046599000062 ], [ 121.463072891000024, 14.238977457000033 ], [ 121.462876987000072, 14.238873742000067 ], [ 121.461587319000046, 14.239347285000065 ], [ 121.461495626000101, 14.239394874000027 ], [ 121.461444409000023, 14.239522916000055 ], [ 121.461418801000036, 14.239768756000046 ], [ 121.461336854000024, 14.240321898000047 ], [ 121.461301002000027, 14.240690659000052 ], [ 121.46128563700006, 14.240941622000037 ], [ 121.461193447000028, 14.241197706000037 ], [ 121.461096135000048, 14.241213071000061 ], [ 121.460824686000024, 14.241166976000045 ], [ 121.460517385000117, 14.241120881000029 ], [ 121.459979608000026, 14.241095272000052 ], [ 121.459656942000038, 14.241105515000072 ], [ 121.459191168000075, 14.241492995000044 ], [ 121.459006364000061, 14.242330047000053 ], [ 121.458962881000048, 14.242710525000064 ], [ 121.458875915000021, 14.243112745000076 ], [ 121.458723723000048, 14.243569319000073 ], [ 121.458506307000107, 14.244275922000043 ], [ 121.458375857000078, 14.245189070000038 ], [ 121.458104087000038, 14.246026122000046 ], [ 121.457919283000024, 14.246417471000029 ], [ 121.457810575000053, 14.246765337000056 ], [ 121.457517063000068, 14.247308878000069 ], [ 121.457038748000059, 14.247830677000024 ], [ 121.456723494000016, 14.248069834000034 ], [ 121.456256050000093, 14.24827638000005 ], [ 121.4558647, 14.248472054000047 ], [ 121.45562554300011, 14.248754695000059 ], [ 121.455016777000083, 14.249406944000043 ], [ 121.454353658000059, 14.250178772000027 ], [ 121.453973179000059, 14.250635346000024 ], [ 121.453788376000034, 14.251004953000063 ], [ 121.453429639000092, 14.251200628000049 ], [ 121.453103515000066, 14.251331077000032 ], [ 121.452951323000093, 14.251570235000031 ], [ 121.452799132000109, 14.251994197000045 ], [ 121.452570845000082, 14.252287709000029 ], [ 121.452266462000011, 14.252570350000042 ], [ 121.451809888000071, 14.252874732000066 ], [ 121.451418539000088, 14.253309565000052 ], [ 121.451114157, 14.253874847000077 ], [ 121.45091848200002, 14.254277067000032 ], [ 121.450548874000106, 14.254940186000056 ], [ 121.450353200000109, 14.255331535000039 ], [ 121.45025536300011, 14.255907688000036 ], [ 121.449972721000108, 14.256657774000075 ], [ 121.451916925000091, 14.257230168000035 ], [ 121.452108850000059, 14.257286673000067 ], [ 121.452202865000118, 14.257355618000076 ], [ 121.452378360000012, 14.257430830000033 ], [ 121.452503714000045, 14.257462168000075 ], [ 121.452741885000023, 14.257543648000023 ], [ 121.452572658, 14.258621687000073 ], [ 121.452773223, 14.258703166000032 ], [ 121.452522517000034, 14.259912826000061 ], [ 121.452560123000012, 14.260194871000067 ], [ 121.452674459000036, 14.26028651200005 ], [ 121.453756677000115, 14.260457828000028 ], [ 121.454709362000017, 14.260533040000041 ], [ 121.455273452000029, 14.260712713000032 ], [ 121.45677351400002, 14.261013561000027 ], [ 121.456886332000067, 14.260904922000066 ] ] ] } },
{ "type": "Feature", "properties": { "ADM1_EN": "Region IV-A (Calabarzon)", "ADM1_PCODE": "PH04", "ADM2_EN": "Laguna", "ADM2_PCODE": "PH04034", "ADM3_EN": "Pagsanjan", "ADM3_PCODE": "PH0403419", "ADM4_EN": "Layugan", "ADM4_PCODE": "PH0403419008" }, "geometry": { "type": "Polygon", "coordinates": [ [ [ 121.442346451000049, 14.24750453200005 ], [ 121.442725597000049, 14.245818328000041 ], [ 121.44286528300006, 14.244940305000057 ], [ 121.44286528300006, 14.244371585000067 ], [ 121.442705642000078, 14.243653202000075 ], [ 121.442436249000025, 14.242725291000056 ], [ 121.442126945000041, 14.24152798700004 ], [ 121.446053357000096, 14.236072249000074 ], [ 121.442108605000044, 14.234601443000031 ], [ 121.435073837000118, 14.230854437000062 ], [ 121.435627561000047, 14.233100084000057 ], [ 121.436321576000068, 14.235580920000075 ], [ 121.436771587000067, 14.237334804000056 ], [ 121.436749600000098, 14.23893793700006 ], [ 121.436550604000104, 14.240061630000071 ], [ 121.436916607000057, 14.240490601000033 ], [ 121.437282622000112, 14.242968439000038 ], [ 121.43780163200006, 14.244631329000072 ], [ 121.439220642, 14.246359210000037 ], [ 121.437290653000105, 14.247907122000072 ], [ 121.437038660000098, 14.249034051000024 ], [ 121.437236662000032, 14.249277034000045 ], [ 121.442346451000049, 14.24750453200005 ] ] ] } },
{ "type": "Feature", "properties": { "ADM1_EN": "Region IV-A (Calabarzon)", "ADM1_PCODE": "PH04", "ADM2_EN": "Laguna", "ADM2_PCODE": "PH04034", "ADM3_EN": "Pagsanjan", "ADM3_PCODE": "PH0403419", "ADM4_EN": "Magdapio", "ADM4_PCODE": "PH0403419009" }, "geometry": { "type": "Polygon", "coordinates": [ [ [ 121.460590528000012, 14.277147730000024 ], [ 121.46055069800002, 14.276171893000026 ], [ 121.461745599000096, 14.27402107000006 ], [ 121.462475319000077, 14.273720597000022 ], [ 121.463099821000014, 14.273463449000076 ], [ 121.463439210000047, 14.273396684000033 ], [ 121.464314638000019, 14.27322446900007 ], [ 121.468769636000047, 14.274278167000034 ], [ 121.47045132900007, 14.270407099000067 ], [ 121.471783992000042, 14.269233086000042 ], [ 121.472858343000098, 14.26693657800007 ], [ 121.472222400000078, 14.267197477000025 ], [ 121.471765826000023, 14.267018109000048 ], [ 121.471211415000084, 14.266431085000022 ], [ 121.470934209, 14.265844061000053 ], [ 121.470608085000094, 14.265566856000078 ], [ 121.469955837000043, 14.265729918000034 ], [ 121.469303588000116, 14.265778837000028 ], [ 121.468080622000116, 14.26571361200007 ], [ 121.467037024000092, 14.265746224000054 ], [ 121.466254326000012, 14.265844061000053 ], [ 121.464167130000078, 14.266643066000029 ], [ 121.463033404000043, 14.267097931000023 ], [ 121.462585428000011, 14.26727900800006 ], [ 121.461101562000067, 14.267800807000071 ], [ 121.46026994500005, 14.26851828100007 ], [ 121.459307878000118, 14.269480347000069 ], [ 121.459118681000064, 14.269772592000038 ], [ 121.458541486000058, 14.270638089000045 ], [ 121.457977714000094, 14.271539913000026 ], [ 121.457807707000029, 14.272040423000021 ], [ 121.457579420000116, 14.272839428000054 ], [ 121.457367439000109, 14.273540595000043 ], [ 121.457155458000102, 14.274160231000053 ], [ 121.457106539000051, 14.275073379000048 ], [ 121.457188071000019, 14.275970221000023 ], [ 121.457628338000063, 14.276899675000038 ], [ 121.458264281000083, 14.277878048000048 ], [ 121.458998060000113, 14.278937952000035 ], [ 121.459585084000082, 14.279573894000066 ], [ 121.460188414000072, 14.280372899000042 ], [ 121.460808050000082, 14.281351272000052 ], [ 121.461443993000103, 14.282345951000025 ], [ 121.461914155000045, 14.283264534000068 ], [ 121.460590528000012, 14.277147730000024 ] ] ] } },
{ "type": "Feature", "properties": { "ADM1_EN": "Region IV-A (Calabarzon)", "ADM1_PCODE": "PH04", "ADM2_EN": "Laguna", "ADM2_PCODE": "PH04034", "ADM3_EN": "Pagsanjan", "ADM3_PCODE": "PH0403419", "ADM4_EN": "Maulawin", "ADM4_PCODE": "PH0403419010" }, "geometry": { "type": "Polygon", "coordinates": [ [ [ 121.454782434000094, 14.271949758000062 ], [ 121.455189351000058, 14.271931262000066 ], [ 121.455726079000101, 14.271720461000029 ], [ 121.456412317000058, 14.271442076000028 ], [ 121.456992409, 14.271332518000065 ], [ 121.456938089000118, 14.270998242000076 ], [ 121.456908840000096, 14.270772606000037 ], [ 121.456887948000031, 14.270588755000063 ], [ 121.456896304000111, 14.27049265100004 ], [ 121.456896304000111, 14.270430309000062 ], [ 121.456896304000111, 14.270417438000038 ], [ 121.456942267000045, 14.270329691000029 ], [ 121.456996587000049, 14.270233587000064 ], [ 121.457046728000023, 14.270150018000038 ], [ 121.457142833000034, 14.269920203000027 ], [ 121.457205509000119, 14.269811564000065 ], [ 121.457259829, 14.269702924000057 ], [ 121.4572974350001, 14.269590106000066 ], [ 121.457234759000016, 14.269456396000066 ], [ 121.457130297000049, 14.26946057400005 ], [ 121.457084334000115, 14.269410433000075 ], [ 121.4569631600001, 14.269427147000044 ], [ 121.456896304000111, 14.269381184000054 ], [ 121.456770951000067, 14.269414612000048 ], [ 121.456658133000019, 14.269335221000063 ], [ 121.456503531000067, 14.269305972000041 ], [ 121.456386534000103, 14.269297615000028 ], [ 121.456282073000011, 14.269280901000059 ], [ 121.456185969000103, 14.269184797000037 ], [ 121.456181790000073, 14.269055265000077 ], [ 121.456185969000103, 14.268883949000042 ], [ 121.456144184000095, 14.268704276000051 ], [ 121.456114935000073, 14.268570566000051 ], [ 121.45606624100003, 14.268504763000067 ], [ 121.455960333, 14.268361643000048 ], [ 121.455964511000047, 14.268286431000035 ], [ 121.455951976000051, 14.268219576000035 ], [ 121.455809909000095, 14.268094223000048 ], [ 121.455642771000043, 14.267993940000053 ], [ 121.455500704000087, 14.268010654000022 ], [ 121.455341923000105, 14.267977226000028 ], [ 121.455228582000018, 14.267952156000035 ], [ 121.455031151000071, 14.267905148000068 ], [ 121.454810215000066, 14.267791285000044 ], [ 121.454728736000106, 14.267609523000033 ], [ 121.454766342000084, 14.267327478000027 ], [ 121.454728736000106, 14.267158251000069 ], [ 121.454578312000081, 14.267007827000043 ], [ 121.454415352000069, 14.266913812000041 ], [ 121.454302534000021, 14.26680099400005 ], [ 121.454214787000069, 14.26655028700003 ], [ 121.454177181000091, 14.266324651000048 ], [ 121.454170913000098, 14.26608648000007 ], [ 121.454051828000047, 14.265867111000034 ], [ 121.45385753000005, 14.265654011000038 ], [ 121.453871463000041, 14.26548542300003 ], [ 121.45392020700001, 14.264895623000029 ], [ 121.453888868000035, 14.26469505700004 ], [ 121.453556682000112, 14.264557169000057 ], [ 121.453437596000072, 14.264337800000021 ], [ 121.45321196000009, 14.264256320000072 ], [ 121.453005127000097, 14.264318997000032 ], [ 121.452779491000115, 14.264156038000067 ], [ 121.45240969800011, 14.264105896000046 ], [ 121.452290613000059, 14.264036952000026 ], [ 121.452077512000074, 14.263974275000066 ], [ 121.452027371000099, 14.263748639000028 ], [ 121.451864411000088, 14.263742372000024 ], [ 121.451707720000059, 14.263736104000031 ], [ 121.451582366000025, 14.263673427000072 ], [ 121.451651311000091, 14.263554342000077 ], [ 121.451808002, 14.263504200000057 ], [ 121.451870679000081, 14.263184549000073 ], [ 121.452171527000019, 14.263128140000049 ], [ 121.45235328900003, 14.262958913000034 ], [ 121.452509981000048, 14.262902504000067 ], [ 121.452553855000019, 14.262814757000058 ], [ 121.452647870000078, 14.262695671000074 ], [ 121.452654138000071, 14.262545247000048 ], [ 121.452522517000034, 14.262444964000053 ], [ 121.452447304000088, 14.262288273000024 ], [ 121.45247237500007, 14.262106510000024 ], [ 121.452453572000081, 14.261749253000062 ], [ 121.45235328900003, 14.261297981000041 ], [ 121.452227936000099, 14.261147557000072 ], [ 121.45227181000007, 14.261015936000035 ], [ 121.45240969800011, 14.260878047000062 ], [ 121.452415966000103, 14.260345295000036 ], [ 121.452560123000012, 14.260194871000067 ], [ 121.452522517000034, 14.259912826000061 ], [ 121.452773223, 14.258703166000032 ], [ 121.452572658, 14.258621687000073 ], [ 121.452741885000023, 14.257543648000023 ], [ 121.452503714000045, 14.257462168000075 ], [ 121.452378360000012, 14.257430830000033 ], [ 121.452202865000118, 14.257355618000076 ], [ 121.452108850000059, 14.257286673000067 ], [ 121.451916925000091, 14.257230168000035 ], [ 121.449972721000108, 14.256657774000075 ], [ 121.44971182200004, 14.257223056000043 ], [ 121.449472664000041, 14.257853563000026 ], [ 121.449298731000113, 14.258244912000066 ], [ 121.449157411000101, 14.258647132000021 ], [ 121.449070444000085, 14.259071094000035 ], [ 121.449048703000017, 14.259429831000034 ], [ 121.449026961000072, 14.259853792000058 ], [ 121.448983478000059, 14.260451687000057 ], [ 121.448950865000029, 14.260853907000069 ], [ 121.448766062000118, 14.261266998000053 ], [ 121.448624741000117, 14.261658347000036 ], [ 121.448407325000062, 14.262245370000073 ], [ 121.448189909, 14.262691074000031 ], [ 121.448026847000051, 14.263104164000026 ], [ 121.447776818000079, 14.263538997000069 ], [ 121.447515918000022, 14.263952088000053 ], [ 121.447124569000039, 14.264397791000022 ], [ 121.446907153000097, 14.264745657000049 ], [ 121.446809316000099, 14.265397905000043 ], [ 121.446754962000114, 14.265897963000043 ], [ 121.446787574000041, 14.266474115000051 ], [ 121.446885412000029, 14.266811111000038 ], [ 121.446983249000027, 14.267474230000062 ], [ 121.447068856000101, 14.268409120000058 ], [ 121.447117775000038, 14.268971684000064 ], [ 121.447124569000039, 14.269344009000065 ], [ 121.447142234000012, 14.269729923000057 ], [ 121.447142234000012, 14.270365865000031 ], [ 121.447337909000112, 14.271319779000066 ], [ 121.448316282000064, 14.271515453000063 ], [ 121.449270195000054, 14.271490994000033 ], [ 121.450270777000014, 14.271490994000033 ], [ 121.450639917000103, 14.271490994000033 ], [ 121.451667209000107, 14.271735587000023 ], [ 121.452572204000035, 14.271931262000066 ], [ 121.454113141000107, 14.27198018100006 ], [ 121.454782434000094, 14.271949758000062 ] ] ] } },
{ "type": "Feature", "properties": { "ADM1_EN": "Region IV-A (Calabarzon)", "ADM1_PCODE": "PH04", "ADM2_EN": "Laguna", "ADM2_PCODE": "PH04034", "ADM3_EN": "Pagsanjan", "ADM3_PCODE": "PH0403419", "ADM4_EN": "Pinagsanjan", "ADM4_PCODE": "PH0403419011" }, "geometry": { "type": "Polygon", "coordinates": [ [ [ 121.458541486000058, 14.270638089000045 ], [ 121.459118681000064, 14.269772592000038 ], [ 121.459307878000118, 14.269480347000069 ], [ 121.46026994500005, 14.26851828100007 ], [ 121.461101562000067, 14.267800807000071 ], [ 121.462585428000011, 14.26727900800006 ], [ 121.463033404000043, 14.267097931000023 ], [ 121.464167130000078, 14.266643066000029 ], [ 121.466254326000012, 14.265844061000053 ], [ 121.467037024000092, 14.265746224000054 ], [ 121.468080622000116, 14.26571361200007 ], [ 121.469303588000116, 14.265778837000028 ], [ 121.469955837000043, 14.265729918000034 ], [ 121.470608085000094, 14.265566856000078 ], [ 121.470934209, 14.265844061000053 ], [ 121.471211415000084, 14.266431085000022 ], [ 121.471765826000023, 14.267018109000048 ], [ 121.472222400000078, 14.267197477000025 ], [ 121.472858343000098, 14.26693657800007 ], [ 121.473543204000066, 14.266398473000038 ], [ 121.474058398000011, 14.265717572000028 ], [ 121.47270612300008, 14.264525545000026 ], [ 121.471405190000041, 14.26354191300004 ], [ 121.47131, 14.261987139000041 ], [ 121.471151350000014, 14.261130427000069 ], [ 121.471500380000066, 14.25982949400003 ], [ 121.472230172000081, 14.259956415000033 ], [ 121.472864774000072, 14.259480464000035 ], [ 121.473023424000075, 14.258433371000024 ], [ 121.473055154, 14.25735454900007 ], [ 121.471563841000034, 14.257925690000036 ], [ 121.470802319000086, 14.25760838900004 ], [ 121.470199448000017, 14.257576659000051 ], [ 121.469311006000112, 14.257767040000033 ], [ 121.46883505400001, 14.258147801000064 ], [ 121.468422564000093, 14.258909322000022 ], [ 121.46772450200001, 14.259194893000029 ], [ 121.467149639000013, 14.259012478000045 ], [ 121.466091970000093, 14.25925221600005 ], [ 121.465541982000104, 14.259153500000025 ], [ 121.464808665000078, 14.259590670000023 ], [ 121.464159961000064, 14.259717590000037 ], [ 121.46337023500007, 14.260394499000029 ], [ 121.462681657000076, 14.260687782000048 ], [ 121.462608714000112, 14.260718850000046 ], [ 121.462557855000114, 14.260682118000034 ], [ 121.462354873000095, 14.260535521000065 ], [ 121.462129237000113, 14.259943226000075 ], [ 121.461635658000091, 14.259647079000047 ], [ 121.461043363000044, 14.259548363000022 ], [ 121.460902341000065, 14.259012478000045 ], [ 121.460521580000091, 14.258913762000077 ], [ 121.459774160000052, 14.259139398000059 ], [ 121.459365195000032, 14.258927864000043 ], [ 121.459284383000067, 14.258940162000044 ], [ 121.459027391000063, 14.258979269000065 ], [ 121.458716491000018, 14.259026580000068 ], [ 121.458237015, 14.258970171000044 ], [ 121.457517800000119, 14.258857353000053 ], [ 121.457630618000053, 14.258166342000038 ], [ 121.457080630000064, 14.258124036000027 ], [ 121.456713971000113, 14.25932272700004 ], [ 121.457165244000066, 14.259576568000057 ], [ 121.456886332000067, 14.260904922000066 ], [ 121.45677351400002, 14.261013561000027 ], [ 121.455273452000029, 14.260712713000032 ], [ 121.454709362000017, 14.260533040000041 ], [ 121.453756677000115, 14.260457828000028 ], [ 121.452674459000036, 14.26028651200005 ], [ 121.452560123000012, 14.260194871000067 ], [ 121.452415966000103, 14.260345295000036 ], [ 121.45240969800011, 14.260878047000062 ], [ 121.45227181000007, 14.261015936000035 ], [ 121.452227936000099, 14.261147557000072 ], [ 121.45235328900003, 14.261297981000041 ], [ 121.452453572000081, 14.261749253000062 ], [ 121.45247237500007, 14.262106510000024 ], [ 121.452447304000088, 14.262288273000024 ], [ 121.452522517000034, 14.262444964000053 ], [ 121.452654138000071, 14.262545247000048 ], [ 121.452647870000078, 14.262695671000074 ], [ 121.452553855000019, 14.262814757000058 ], [ 121.452509981000048, 14.262902504000067 ], [ 121.45235328900003, 14.262958913000034 ], [ 121.452171527000019, 14.263128140000049 ], [ 121.451870679000081, 14.263184549000073 ], [ 121.451808002, 14.263504200000057 ], [ 121.451651311000091, 14.263554342000077 ], [ 121.451582366000025, 14.263673427000072 ], [ 121.451707720000059, 14.263736104000031 ], [ 121.451864411000088, 14.263742372000024 ], [ 121.452027371000099, 14.263748639000028 ], [ 121.452077512000074, 14.263974275000066 ], [ 121.452290613000059, 14.264036952000026 ], [ 121.45240969800011, 14.264105896000046 ], [ 121.452779491000115, 14.264156038000067 ], [ 121.453005127000097, 14.264318997000032 ], [ 121.45321196000009, 14.264256320000072 ], [ 121.453437596000072, 14.264337800000021 ], [ 121.453556682000112, 14.264557169000057 ], [ 121.453888868000035, 14.26469505700004 ], [ 121.45392020700001, 14.264895623000029 ], [ 121.453871463000041, 14.26548542300003 ], [ 121.45385753000005, 14.265654011000038 ], [ 121.454051828000047, 14.265867111000034 ], [ 121.454170913000098, 14.26608648000007 ], [ 121.454177181000091, 14.266324651000048 ], [ 121.454214787000069, 14.26655028700003 ], [ 121.454302534000021, 14.26680099400005 ], [ 121.454415352000069, 14.266913812000041 ], [ 121.454578312000081, 14.267007827000043 ], [ 121.454728736000106, 14.267158251000069 ], [ 121.454766342000084, 14.267327478000027 ], [ 121.454728736000106, 14.267609523000033 ], [ 121.454810215000066, 14.267791285000044 ], [ 121.455031151000071, 14.267905148000068 ], [ 121.455228582000018, 14.267952156000035 ], [ 121.455341923000105, 14.267977226000028 ], [ 121.455500704000087, 14.268010654000022 ], [ 121.455642771000043, 14.267993940000053 ], [ 121.455809909000095, 14.268094223000048 ], [ 121.455951976000051, 14.268219576000035 ], [ 121.455964511000047, 14.268286431000035 ], [ 121.455960333, 14.268361643000048 ], [ 121.45606624100003, 14.268504763000067 ], [ 121.456114935000073, 14.268570566000051 ], [ 121.456144184000095, 14.268704276000051 ], [ 121.456185969000103, 14.268883949000042 ], [ 121.456181790000073, 14.269055265000077 ], [ 121.456185969000103, 14.269184797000037 ], [ 121.456282073000011, 14.269280901000059 ], [ 121.456386534000103, 14.269297615000028 ], [ 121.456503531000067, 14.269305972000041 ], [ 121.456658133000019, 14.269335221000063 ], [ 121.456770951000067, 14.269414612000048 ], [ 121.456896304000111, 14.269381184000054 ], [ 121.4569631600001, 14.269427147000044 ], [ 121.457084334000115, 14.269410433000075 ], [ 121.457130297000049, 14.26946057400005 ], [ 121.457234759000016, 14.269456396000066 ], [ 121.4572974350001, 14.269590106000066 ], [ 121.457259829, 14.269702924000057 ], [ 121.457205509000119, 14.269811564000065 ], [ 121.457142833000034, 14.269920203000027 ], [ 121.457046728000023, 14.270150018000038 ], [ 121.456996587000049, 14.270233587000064 ], [ 121.456942267000045, 14.270329691000029 ], [ 121.456896304000111, 14.270417438000038 ], [ 121.456896304000111, 14.270430309000062 ], [ 121.456896304000111, 14.27049265100004 ], [ 121.456887948000031, 14.270588755000063 ], [ 121.456908840000096, 14.270772606000037 ], [ 121.456938089000118, 14.270998242000076 ], [ 121.456992409, 14.271332518000065 ], [ 121.457464068000036, 14.271246401000042 ], [ 121.457977714000094, 14.271539913000026 ], [ 121.458541486000058, 14.270638089000045 ] ] ] } },
{ "type": "Feature", "properties": { "ADM1_EN": "Region IV-A (Calabarzon)", "ADM1_PCODE": "PH04", "ADM2_EN": "Laguna", "ADM2_PCODE": "PH04034", "ADM3_EN": "Pagsanjan", "ADM3_PCODE": "PH0403419", "ADM4_EN": "Barangay I (Pob.)", "ADM4_PCODE": "PH0403419012" }, "geometry": { "type": "Polygon", "coordinates": [ [ [ 121.456990129000019, 14.277327962000072 ], [ 121.457114145000105, 14.27731215600005 ], [ 121.45735847200001, 14.277181567000071 ], [ 121.457628338000063, 14.276899675000038 ], [ 121.457188071000019, 14.275970221000023 ], [ 121.457106539000051, 14.275073379000048 ], [ 121.457155458000102, 14.274160231000053 ], [ 121.457367439000109, 14.273540595000043 ], [ 121.457579420000116, 14.272839428000054 ], [ 121.457807707000029, 14.272040423000021 ], [ 121.457977714000094, 14.271539913000026 ], [ 121.457464068000036, 14.271246401000042 ], [ 121.456992409, 14.271332518000065 ], [ 121.456412317000058, 14.271442076000028 ], [ 121.455726079000101, 14.271720461000029 ], [ 121.455189351000058, 14.271931262000066 ], [ 121.454782434000094, 14.271949758000062 ], [ 121.454782500000078, 14.271950245000028 ], [ 121.454782452000018, 14.271950247000063 ], [ 121.45480550000002, 14.272280984000076 ], [ 121.454850639000028, 14.272479608000026 ], [ 121.454955963000089, 14.272943033000047 ], [ 121.455084107000062, 14.273606573000052 ], [ 121.455095860000029, 14.273722608000071 ], [ 121.453090852000059, 14.275612701000057 ], [ 121.454515490000063, 14.27644231000005 ], [ 121.455426766000073, 14.276827813000068 ], [ 121.456080555000085, 14.276669737000077 ], [ 121.456305338000107, 14.27659602500006 ], [ 121.456393802000093, 14.277013066000052 ], [ 121.456623396000055, 14.277004727000076 ], [ 121.45668446600007, 14.277366919000031 ], [ 121.456990129000019, 14.277327962000072 ] ] ] } },
{ "type": "Feature", "properties": { "ADM1_EN": "Region IV-A (Calabarzon)", "ADM1_PCODE": "PH04", "ADM2_EN": "Laguna", "ADM2_PCODE": "PH04034", "ADM3_EN": "Pagsanjan", "ADM3_PCODE": "PH0403419", "ADM4_EN": "Barangay II (Pob.)", "ADM4_PCODE": "PH0403419013" }, "geometry": { "type": "Polygon", "coordinates": [ [ [ 121.449327279000045, 14.278887884000028 ], [ 121.449378770000067, 14.278756814000076 ], [ 121.449594099000024, 14.27862106300006 ], [ 121.449870282, 14.278387010000074 ], [ 121.450071567, 14.278138914000067 ], [ 121.450427328000046, 14.278035930000044 ], [ 121.450769046000119, 14.27767080700005 ], [ 121.451031185000033, 14.277516332000062 ], [ 121.451082677000045, 14.277352495000059 ], [ 121.451363540000102, 14.276959286000022 ], [ 121.451766112000087, 14.277090356000031 ], [ 121.451878457000021, 14.276467775000071 ], [ 121.451962716000025, 14.275765615000068 ], [ 121.452426142000036, 14.275714124000046 ], [ 121.452585298000031, 14.275583054000037 ], [ 121.453090852000059, 14.275612701000057 ], [ 121.455095860000029, 14.273722608000071 ], [ 121.455084107000062, 14.273606573000052 ], [ 121.454955963000089, 14.272943033000047 ], [ 121.454850639000028, 14.272479608000026 ], [ 121.45480550000002, 14.272280984000076 ], [ 121.454782452000018, 14.271950247000063 ], [ 121.454782500000078, 14.271950245000028 ], [ 121.454782434000094, 14.271949758000062 ], [ 121.454113141000107, 14.27198018100006 ], [ 121.452572204000035, 14.271931262000066 ], [ 121.451667209000107, 14.271735587000023 ], [ 121.450639917000103, 14.271490994000033 ], [ 121.450270777000014, 14.271490994000033 ], [ 121.449270195000054, 14.271490994000033 ], [ 121.449331667000024, 14.272268960000076 ], [ 121.449015695000071, 14.273237940000058 ], [ 121.448687436000114, 14.274238516000025 ], [ 121.448603272000014, 14.27444605200003 ], [ 121.44924302000004, 14.274497048000057 ], [ 121.449140036000017, 14.274993240000072 ], [ 121.449069820000091, 14.275531562000026 ], [ 121.448999604000051, 14.275779659000023 ], [ 121.448835767000105, 14.276435007000032 ], [ 121.448601714, 14.277052907000041 ], [ 121.44829276400003, 14.276982691000057 ], [ 121.448011900000097, 14.276949924000064 ], [ 121.447927641000092, 14.277385263000042 ], [ 121.448180419000096, 14.277446117000068 ], [ 121.448142970000049, 14.277661445000035 ], [ 121.44787615000007, 14.277642721000063 ], [ 121.447749761000068, 14.27820913000005 ], [ 121.447759123000083, 14.278494674000058 ], [ 121.447688907000042, 14.278855116000045 ], [ 121.448016581000047, 14.278892565000035 ], [ 121.447815296000044, 14.279688345000068 ], [ 121.447464216000071, 14.279632172000049 ], [ 121.447356552000088, 14.279627491000042 ], [ 121.447234844000036, 14.280175175000068 ], [ 121.447085050000055, 14.280165813000053 ], [ 121.447094412000069, 14.280507531000069 ], [ 121.447581243000059, 14.280577747000052 ], [ 121.447913598000014, 14.28061987600006 ], [ 121.44931791700003, 14.280952232000061 ], [ 121.449327279000045, 14.278887884000028 ] ] ] } },
{ "type": "Feature", "properties": { "ADM1_EN": "Region IV-A (Calabarzon)", "ADM1_PCODE": "PH04", "ADM2_EN": "Laguna", "ADM2_PCODE": "PH04034", "ADM3_EN": "Pagsanjan", "ADM3_PCODE": "PH0403419", "ADM4_EN": "Sabang", "ADM4_PCODE": "PH0403419014" }, "geometry": { "type": "Polygon", "coordinates": [ [ [ 121.441241252000054, 14.259046758000068 ], [ 121.441409821000093, 14.258534808000036 ], [ 121.441759446000106, 14.257592069000054 ], [ 121.441185062000045, 14.257423500000073 ], [ 121.440897871000061, 14.257223715000066 ], [ 121.440654382000048, 14.257167525000057 ], [ 121.440754275000018, 14.256730494000067 ], [ 121.439792807000117, 14.256499492000046 ], [ 121.440204865000055, 14.255019830000037 ], [ 121.439986349000037, 14.254532853000057 ], [ 121.439767834, 14.254220688000032 ], [ 121.439811537000082, 14.253827360000059 ], [ 121.439880213000038, 14.253602601000068 ], [ 121.439986349000037, 14.253446519000022 ], [ 121.439948889000107, 14.253140597000026 ], [ 121.440074344000095, 14.253037630000051 ], [ 121.440078778000043, 14.252855817000068 ], [ 121.440131992000033, 14.25278486600007 ], [ 121.440531093000118, 14.252846949000059 ], [ 121.440593176000107, 14.252807038000071 ], [ 121.440752816000099, 14.252802604000067 ], [ 121.440779423000095, 14.252687308000077 ], [ 121.44085924400008, 14.252682873000026 ], [ 121.440899154000022, 14.252585315000033 ], [ 121.440992277000078, 14.252594184000031 ], [ 121.441027753000071, 14.252164042000061 ], [ 121.441147484000112, 14.25214186900007 ], [ 121.441214, 14.25149887200007 ], [ 121.441661881000073, 14.251578693000056 ], [ 121.442513298000108, 14.251640775000055 ], [ 121.442677373000038, 14.251516610000067 ], [ 121.442686241000047, 14.251303756000027 ], [ 121.443063171000063, 14.251268280000033 ], [ 121.443466707000084, 14.251146333000065 ], [ 121.443085343, 14.250427950000073 ], [ 121.443005523000011, 14.250255006000032 ], [ 121.442992219000075, 14.250090931000045 ], [ 121.442916833000027, 14.249541058000034 ], [ 121.442850317000079, 14.248973447000026 ], [ 121.442814841000086, 14.248716248000051 ], [ 121.442346451000049, 14.24750453200005 ], [ 121.437236662000032, 14.249277034000045 ], [ 121.435930928000062, 14.250196990000063 ], [ 121.434947985, 14.250889524000058 ], [ 121.433920894000039, 14.250721229000021 ], [ 121.431364005000091, 14.249792226000068 ], [ 121.427866342000016, 14.248521409000034 ], [ 121.426565685000014, 14.249099976000025 ], [ 121.425016520000099, 14.249376435000045 ], [ 121.425395154000057, 14.249791290000076 ], [ 121.425535582000066, 14.25049681400003 ], [ 121.42539702900001, 14.251145119000057 ], [ 121.425264688000084, 14.251446144000056 ], [ 121.425071456000069, 14.251632581000024 ], [ 121.424881695000067, 14.252408393000053 ], [ 121.424644087000047, 14.254907953000043 ], [ 121.424562300000048, 14.256172430000049 ], [ 121.424604755000018, 14.257780789000037 ], [ 121.424658514000043, 14.258106772000076 ], [ 121.425531428000113, 14.258372397000073 ], [ 121.427081378000025, 14.258610555000075 ], [ 121.42978361400003, 14.256932565000056 ], [ 121.431490259000043, 14.257809374000033 ], [ 121.432685074, 14.258423224000069 ], [ 121.434944202000111, 14.259583877000068 ], [ 121.436883539000064, 14.259024716000056 ], [ 121.440916601000026, 14.260133092000046 ], [ 121.441241252000054, 14.259046758000068 ] ] ] } },
{ "type": "Feature", "properties": { "ADM1_EN": "Region IV-A (Calabarzon)", "ADM1_PCODE": "PH04", "ADM2_EN": "Laguna", "ADM2_PCODE": "PH04034", "ADM3_EN": "Pagsanjan", "ADM3_PCODE": "PH0403419", "ADM4_EN": "Sampaloc", "ADM4_PCODE": "PH0403419015" }, "geometry": { "type": "Polygon", "coordinates": [ [ [ 121.447085050000055, 14.280165813000053 ], [ 121.447234844000036, 14.280175175000068 ], [ 121.447356552000088, 14.279627491000042 ], [ 121.447464216000071, 14.279632172000049 ], [ 121.447815296000044, 14.279688345000068 ], [ 121.448016581000047, 14.278892565000035 ], [ 121.447688907000042, 14.278855116000045 ], [ 121.447759123000083, 14.278494674000058 ], [ 121.447749761000068, 14.27820913000005 ], [ 121.44787615000007, 14.277642721000063 ], [ 121.448142970000049, 14.277661445000035 ], [ 121.448180419000096, 14.277446117000068 ], [ 121.447927641000092, 14.277385263000042 ], [ 121.448011900000097, 14.276949924000064 ], [ 121.44829276400003, 14.276982691000057 ], [ 121.448601714, 14.277052907000041 ], [ 121.448835767000105, 14.276435007000032 ], [ 121.448999604000051, 14.275779659000023 ], [ 121.449069820000091, 14.275531562000026 ], [ 121.449140036000017, 14.274993240000072 ], [ 121.44924302000004, 14.274497048000057 ], [ 121.448603272000014, 14.27444605200003 ], [ 121.448687436000114, 14.274238516000025 ], [ 121.449015695000071, 14.273237940000058 ], [ 121.449331667000024, 14.272268960000076 ], [ 121.449270195000054, 14.271490994000033 ], [ 121.448316282000064, 14.271515453000063 ], [ 121.447337909000112, 14.271319779000066 ], [ 121.447142234000012, 14.270365865000031 ], [ 121.447142234000012, 14.269729923000057 ], [ 121.447124569000039, 14.269344009000065 ], [ 121.447117775000038, 14.268971684000064 ], [ 121.447068856000101, 14.268409120000058 ], [ 121.446983249000027, 14.267474230000062 ], [ 121.446885412000029, 14.266811111000038 ], [ 121.446787574000041, 14.266474115000051 ], [ 121.446754962000114, 14.265897963000043 ], [ 121.446809316000099, 14.265397905000043 ], [ 121.446907153000097, 14.264745657000049 ], [ 121.447124569000039, 14.264397791000022 ], [ 121.447515918000022, 14.263952088000053 ], [ 121.447776818000079, 14.263538997000069 ], [ 121.448026847000051, 14.263104164000026 ], [ 121.448189909, 14.262691074000031 ], [ 121.448407325000062, 14.262245370000073 ], [ 121.446447565000085, 14.261941666000041 ], [ 121.445944869000073, 14.261742272000049 ], [ 121.445632977000059, 14.261662604000037 ], [ 121.445428132000075, 14.261610279000024 ], [ 121.445032153000056, 14.261545687000023 ], [ 121.443345238, 14.261061246000054 ], [ 121.443245716000092, 14.261331374000065 ], [ 121.443046674000016, 14.261530417000074 ], [ 121.442520634000061, 14.261729459000037 ], [ 121.441809768000098, 14.261473548000026 ], [ 121.440878360000056, 14.261185088000047 ], [ 121.440723839000043, 14.261550321000072 ], [ 121.440765981000027, 14.261803175000068 ], [ 121.440892408000082, 14.261929601000077 ], [ 121.441145261000088, 14.262140313000032 ], [ 121.441341925000074, 14.262421261000043 ], [ 121.441233968, 14.263028942000062 ], [ 121.441021696, 14.263644948000035 ], [ 121.440917771000045, 14.264311505000023 ], [ 121.440780289000031, 14.265193286000056 ], [ 121.44077612600006, 14.265397234000034 ], [ 121.440846884000052, 14.265630317000046 ], [ 121.440913479000073, 14.266009077000035 ], [ 121.440850842000032, 14.266342588000043 ], [ 121.440734504000034, 14.266554325000072 ], [ 121.440405379000026, 14.267191705000073 ], [ 121.439930778000075, 14.268110807000028 ], [ 121.439060799000117, 14.27128060900003 ], [ 121.439861816000075, 14.274130421000052 ], [ 121.442340823000109, 14.275407324000071 ], [ 121.444393852000076, 14.280249001000072 ], [ 121.447094412000069, 14.280507531000069 ], [ 121.447085050000055, 14.280165813000053 ] ] ] } },
{ "type": "Feature", "properties": { "ADM1_EN": "Region IV-A (Calabarzon)", "ADM1_PCODE": "PH04", "ADM2_EN": "Laguna", "ADM2_PCODE": "PH04034", "ADM3_EN": "Pagsanjan", "ADM3_PCODE": "PH0403419", "ADM4_EN": "San Isidro", "ADM4_PCODE": "PH0403419016" }, "geometry": { "type": "Polygon", "coordinates": [ [ [ 121.461443993000103, 14.282345951000025 ], [ 121.460808050000082, 14.281351272000052 ], [ 121.460188414000072, 14.280372899000042 ], [ 121.459585084000082, 14.279573894000066 ], [ 121.458998060000113, 14.278937952000035 ], [ 121.458264281000083, 14.277878048000048 ], [ 121.457628338000063, 14.276899675000038 ], [ 121.45735847200001, 14.277181567000071 ], [ 121.457114145000105, 14.27731215600005 ], [ 121.456990129000019, 14.277327962000072 ], [ 121.45668446600007, 14.277366919000031 ], [ 121.456623396000055, 14.277004727000076 ], [ 121.456393802000093, 14.277013066000052 ], [ 121.456305338000107, 14.27659602500006 ], [ 121.456080555000085, 14.276669737000077 ], [ 121.455426766000073, 14.276827813000068 ], [ 121.454515490000063, 14.27644231000005 ], [ 121.453090852000059, 14.275612701000057 ], [ 121.452585298000031, 14.275583054000037 ], [ 121.452426142000036, 14.275714124000046 ], [ 121.451962716000025, 14.275765615000068 ], [ 121.451878457000021, 14.276467775000071 ], [ 121.451766112000087, 14.277090356000031 ], [ 121.451363540000102, 14.276959286000022 ], [ 121.451082677000045, 14.277352495000059 ], [ 121.451031185000033, 14.277516332000062 ], [ 121.450769046000119, 14.27767080700005 ], [ 121.450427328000046, 14.278035930000044 ], [ 121.450071567, 14.278138914000067 ], [ 121.449870282, 14.278387010000074 ], [ 121.449594099000024, 14.27862106300006 ], [ 121.449378770000067, 14.278756814000076 ], [ 121.449327279000045, 14.278887884000028 ], [ 121.44931791700003, 14.280952232000061 ], [ 121.454280857000072, 14.28204082600007 ], [ 121.457627974000047, 14.282981856000049 ], [ 121.457952472000102, 14.283077166000055 ], [ 121.458400862000076, 14.283203727000057 ], [ 121.461914155000045, 14.283264534000068 ], [ 121.461443993000103, 14.282345951000025 ] ] ] } }
]
}
